ONEWEB-0156             
1 48052U 21025L   24132.92401712  .00000310  00000+0  81276-3 0  9997
2 48052  87.8897 112.7418 0002002  85.4946 274.6412 13.13472696152985
ONEWEB-0161             
1 48053U 21025M   24132.89704470 -.00000229  00000+0 -66161-3 0  9998
2 48053  87.8902 112.7535 0002224  85.1789 274.9594 13.13470921152917
ONEWEB-0158             
1 48054U 21025N   24132.93512729  .00001335  00000+0  36210-2 0  9996
2 48054  87.8899 112.7375 0001895  87.0717 273.0629 13.13480107153041
ONEWEB-0157             
1 48055U 21025P   24132.95894091 -.00000182  00000+0 -53312-3 0  9998
2 48055  87.8897 112.7482 0002085  80.2775 279.8590 13.13470014152989
ONEWEB-0162             
1 48056U 21025Q   24132.92244384  .00000317  00000+0  83285-3 0  9990
2 48056  87.8896 112.7517 0001998  83.9779 276.1577 13.13472168152958
ONEWEB-0155             
1 48057U 21025R   24132.94306835  .00000274  00000+0  71563-3 0  9991
2 48057  87.8894 112.7575 0002011  86.5058 273.6301 13.13470883153092
ONEWEB-0149             
1 48058U 21025S   24132.88751265 -.00000229  00000+0 -66178-3 0  9994
2 48058  87.8898 112.7648 0001912  78.7929 281.3415 13.13467933152898
ONEWEB-0148             
1 48059U 21025T   24132.92878949  .00000809  00000+0  21795-2 0  9996
2 48059  87.8899 112.7656 0002404  67.8589 292.2795 13.13469514153022
ONEWEB-0160             
1 48060U 21025U   24132.94465774  .00000214  00000+0  55168-3 0  9990
2 48060  87.8901 112.7585 0001362 112.3774 247.7499 13.13470924152979
ONEWEB-0163             
1 48061U 21025V   24132.93037506  .00000269  00000+0  70154-3 0  9990
2 48061  87.8900 112.7548 0002283  81.9736 278.1652 13.13472184153093
ONEWEB-0159             
1 48062U 21025W   24132.91925777  .00000179  00000+0  45656-3 0  9994
2 48062  87.8894 112.7408 0002100  80.0005 280.1361 13.13471503153014
ONEWEB-0164             
1 48063U 21025X   24132.90180270 -.00000202  00000+0 -58847-3 0  9990
2 48063  87.8896 112.7540 0002082  90.7263 269.4105 13.13471704153005
ONEWEB-0167             
1 48064U 21025Y   24132.93117801  .00000364  00000+0  96192-3 0  9996
2 48064  87.8898 112.7598 0002183  82.9115 277.2263 13.13469010152987
ONEWEB-0166             
1 48065U 21025Z   24132.95258044  .00000043  00000+0  83413-4 0  9991
2 48065  87.8895 112.7404 0001964  79.8893 280.2458 13.13471667153066
ONEWEB-0151             
1 48066U 21025AA  24132.95418301 -.00000058  00000+0 -19480-3 0  9996
2 48066  87.8897 112.7525 0002104  90.5446 269.5924 13.13470451153006
ONEWEB-0170             
1 48067U 21025AB  24132.96210850 -.00000270  00000+0 -77372-3 0  9997
2 48067  87.8899 112.7525 0002102 104.1466 255.9897 13.13470489152964
ONEWEB-0168             
1 48068U 21025AC  24132.94783542  .00000121  00000+0  29539-3 0  9994
2 48068  87.8900 112.7245 0002038  83.9557 276.1805 13.13471383152979
ONEWEB-0173             
1 48069U 21025AD  24132.93989591  .00000307  00000+0  80598-3 0  9994
2 48069  87.8900 112.7362 0002525  85.6109 274.5309 13.13471717153213
ONEWEB-0171             
1 48070U 21025AE  24132.90022166 -.00000037  00000+0 -13537-3 0  9990
2 48070  87.8899 112.7800 0002589  83.6424 276.5000 13.13468341153025
ONEWEB-0172             
1 48071U 21025AF  24132.95576643 -.00000050  00000+0 -17192-3 0  9996
2 48071  87.8901 112.7349 0002235  87.9388 272.1997 13.13470459153921
ONEWEB-0174             
1 48072U 21025AG  24132.93830773  .00000316  00000+0  82980-3 0  9992
2 48072  87.8901 112.7528 0001986  81.9302 278.2052 13.13468837153244
ONEWEB-0175             
1 48073U 21025AH  24132.89069665 -.00000250  00000+0 -71915-3 0  9997
2 48073  87.8895 112.7528 0002193  96.7937 263.3441 13.13470356152892
ONEWEB-0177             
1 48074U 21025AJ  24132.90339447 -.00000197  00000+0 -57575-3 0  9994
2 48074  87.8894 112.7576 0002379  79.1854 280.9543 13.13471041153086
ONEWEB-0178             
1 48075U 21025AK  24132.92100796  .00000206  00000+0  52883-3 0  9996
2 48075  87.8903 112.7695 0002215  83.6470 276.4911 13.13471121153137
ONEWEB-0108             
1 48076U 21025AL  24132.95735139 -.00000103  00000+0 -31672-3 0  9996
2 48076  87.8897 112.7445 0001753  84.0840 276.0488 13.13470818153064
ONEWEB-0169             
1 48077U 21025AM  24132.91291755  .00000026  00000+0  35549-4 0  9994
2 48077  87.8898 112.7624 0001755  83.6356 276.4973 13.13471879151715
ONEWEB-0176             
1 48210U 21031A   24132.90124512 -.00000045  00000+0 -15525-3 0  9999
2 48210  87.8947  82.1639 0002016  83.4836 276.6523 13.14505512147640
ONEWEB-0184             
1 48211U 21031B   24132.87428668 -.00000349  00000+0 -97576-3 0  9998
2 48211  87.8947  82.1543 0002717 101.4982 258.6453 13.14502205147611
ONEWEB-0179             
1 48212U 21031C   24132.92027209  .00000185  00000+0  46361-3 0  9993
2 48212  87.8950  82.1470 0002088  79.7401 280.3964 13.14505242147667
ONEWEB-0180             
1 48213U 21031D   24132.87747011 -.00000112  00000+0 -33692-3 0  9993
2 48213  87.8948  82.1540 0002218  79.0553 281.0826 13.14504010147543
ONEWEB-0218             
1 48214U 21031E   24132.89966831 -.00000206  00000+0 -59075-3 0  9996
2 48214  87.8943  82.1519 0002997  96.0447 264.1024 13.14500421147702
ONEWEB-0209             
1 48215U 21031F   24132.88857174 -.00000186  00000+0 -53577-3 0  9993
2 48215  87.8952  82.1867 0002127  78.9299 281.2070 13.14504175147709
ONEWEB-0198             
1 48216U 21031G   24132.94882773  .00000031  00000+0  48621-4 0  9996
2 48216  87.8949  82.1798 0002481  83.9930 276.1483 13.14503209147821
ONEWEB-0189             
1 48217U 21031H   24132.88539714 -.00000016  00000+0 -78140-4 0  9998
2 48217  87.8948  82.1692 0002706  83.6675 276.4762 13.14506103147556
ONEWEB-0196             
1 48218U 21031J   24132.93931050  .00000209  00000+0  52820-3 0  9992
2 48218  87.8952  82.1610 0002116  84.9610 275.1761 13.14504774147568
ONEWEB-0183             
1 48219U 21031K   24132.91393463  .00000793  00000+0  21038-2 0  9995
2 48219  87.8946  82.1827 0002012  80.0483 280.0873 13.14499515147657
ONEWEB-0185             
1 48220U 21031L   24132.94009638  .00000141  00000+0  34627-3 0  9994
2 48220  87.8948  82.1502 0002130  76.9006 283.2361 13.14505501147589
ONEWEB-0187             
1 48221U 21031M   24132.90997114  .00000140  00000+0  34254-3 0  9991
2 48221  87.8948  82.1883 0002082  78.0043 282.1320 13.14505150147596
ONEWEB-0192             
1 48222U 21031N   24132.89018183 -.00002592  00000+0 -70299-2 0  9993
2 48222  87.8952  82.1893 0002163  84.5690 275.5686 13.14482991147513
ONEWEB-0219             
1 48223U 21031P   24132.94564651  .00000027  00000+0  39149-4 0  9996
2 48223  87.8951  82.1527 0002166  77.8570 282.2802 13.14501534147714
ONEWEB-0202             
1 48224U 21031Q   24132.92663238  .00000257  00000+0  65831-3 0  9997
2 48224  87.8949  82.1763 0002871  88.7988 271.3471 13.14504183147692
ONEWEB-0204             
1 48225U 21031R   24132.88459483 -.00000076  00000+0 -23926-3 0  9998
2 48225  87.8949  82.1966 0001728  72.6385 287.4934 13.14504974147589
ONEWEB-0205             
1 48226U 21031S   24132.93613797  .00000162  00000+0  40114-3 0  9997
2 48226  87.8949  82.1573 0002208  76.8216 283.3160 13.14504593147603
ONEWEB-0206             
1 48227U 21031T   24132.90917804  .00000127  00000+0  30740-3 0  9996
2 48227  87.8945  82.1531 0002132  75.8919 284.2448 13.14505197147553
ONEWEB-0182             
1 48228U 21031U   24132.82830857  .00000054  00000+0  11040-3 0  9991
2 48228  87.8949  82.1949 0001878  78.2955 281.8385 13.14504185147755
ONEWEB-0186             
1 48229U 21031V   24132.91552080  .00000230  00000+0  58636-3 0  9999
2 48229  87.8948  82.1416 0002133  83.3241 276.8131 13.14505617147714
ONEWEB-0181             
1 48230U 21031W   24132.89332813 -.00000201  00000+0 -57551-3 0  9993
2 48230  87.8948  82.2154 0002179  84.3975 275.7403 13.14503993147569
ONEWEB-0188             
1 48231U 21031X   24132.93137729  .00000184  00000+0  46234-3 0  9992
2 48231  87.8951  82.2040 0002023  80.0300 280.1058 13.14504401147472
ONEWEB-0220             
1 48232U 21031Y   24132.89491631 -.00000119  00000+0 -35471-3 0  9994
2 48232  87.8940  82.1779 0002283  74.7086 285.4296 13.14504710147732
ONEWEB-0165             
1 48233U 21031Z   24132.84733542  .00000311  00000+0  80338-3 0  9994
2 48233  87.8950  82.2018 0002230  81.7283 278.4099 13.14501749147686
ONEWEB-0199             
1 48234U 21031AA  24132.90759693  .00000066  00000+0  14390-3 0  9999
2 48234  87.8945  82.1598 0002121  80.1070 280.0299 13.14504410147598
ONEWEB-0203             
1 48235U 21031AB  24132.89807795 -.00000063  00000+0 -20374-3 0  9993
2 48235  87.8947  82.1630 0002079  97.1407 262.9960 13.14504744147608
ONEWEB-0197             
1 48236U 21031AC  24132.87349864 -.00000045  00000+0 -15574-3 0  9996
2 48236  87.8950  82.1759 0001761  72.6945 287.4377 13.14504510147512
ONEWEB-0194             
1 48237U 21031AD  24132.92820208  .00000291  00000+0  74958-3 0  9991
2 48237  87.8951  82.1579 0001879  90.7757 269.3588 13.14505022147697
ONEWEB-0193             
1 48238U 21031AE  24132.94407170  .00000126  00000+0  30669-3 0  9991
2 48238  87.8950  82.1624 0002163  83.9966 276.1410 13.14502593147646
ONEWEB-0191             
1 48239U 21031AF  24132.87905080 -.00000156  00000+0 -45397-3 0  9996
2 48239  87.8949  82.1606 0002071  84.2815 275.8551 13.14504377147497
ONEWEB-0195             
1 48240U 21031AG  24132.93218024  .00000215  00000+0  54640-3 0  9995
2 48240  87.8948  82.1489 0002524  80.1445 279.9969 13.14504030147487
ONEWEB-0201             
1 48241U 21031AH  24132.84495545  .00000315  00000+0  81644-3 0  9996
2 48241  87.8950  82.2002 0002176  81.2777 278.8600 13.14501970147701
ONEWEB-0207             
1 48242U 21031AJ  24132.82434538 -.00000048  00000+0 -16363-3 0  9991
2 48242  87.8945  82.1705 0002043  75.1286 285.0070 13.14504209147614
